NORAD_CAT_ID,OBJECT_NAME,OBJECT_TYPE,EPOCH,MEAN_MOTION,ECCENTRICITY,INCLINATION,RA_OF_ASC_NODE,ARG_OF_PERICENTER,MEAN_ANOMALY,BSTAR,MEAN_MOTION_DOT,MEAN_MOTION_DDOT,TLE_LINE0,TLE_LINE1,TLE_LINE2,SEMIMAJOR_AXIS,PERIOD,APOGEE,PERIGEE,DECAYED
52359.0,STARLINK-3853,PAYLOAD,2024-01-05 14:13:44,15.08841362,0.0001834,53.2179,163.9706,113.2889,246.8297,-2.3739e-05,-6.66e-06,0.0,0 STARLINK-3853,1 52359U 22045AE  24005.59287072 -.00000666  00000-0 -23739-4 0  9996,2 52359  53.2179 163.9706 0001834 113.2889 246.8297 15.08841362 95902,6917.876,95.437,541.01,538.472,0.0
52359.0,STARLINK-3853,PAYLOAD,2024-01-05 17:24:30,15.08842101,0.0001686,53.2171,163.3742,108.4521,251.6655,7.1768e-06,-1.74e-06,0.0,0 STARLINK-3853,1 52359U 22045AE  24005.72534959 -.00000174  00000-0  71768-5 0  9999,2 52359  53.2171 163.3742 0001686 108.4521 251.6655 15.08842101 95928,6917.874,95.437,540.905,538.573,0.0
52359.0,STARLINK-3853,PAYLOAD,2024-01-06 10:53:44,15.0884034,0.0001417,53.2175,160.1054,96.5905,263.5249,0.00013091,1.796e-05,0.0,0 STARLINK-3853,1 52359U 22045AE  24006.45399000  .00001796  00000-0  13091-3 0  9999,2 52359  53.2175 160.1054 0001417  96.5905 263.5249 15.08840340 96035,6917.879,95.438,540.725,538.764,0.0
52359.0,STARLINK-3853,PAYLOAD,2024-01-06 20:26:03,15.08844761,0.0001323,53.2166,158.3191,96.0119,264.1024,0.00015361,2.158e-05,0.0,0 STARLINK-3853,1 52359U 22045AE  24006.85142587  .00002158  00000-0  15361-3 0  9994,2 52359  53.2166 158.3191 0001323  96.0119 264.1024 15.08844761 96099,6917.866,95.437,540.646,538.816,0.0
52359.0,STARLINK-3853,PAYLOAD,2024-01-07 04:22:59,15.08852218,0.0001421,53.2162,156.8318,100.1817,259.9336,-2.9234e-05,-7.53e-06,0.0,0 STARLINK-3853,1 52359U 22045AE  24007.18262902 -.00000753  00000-0 -29234-4 0  9991,2 52359  53.2162 156.8318 0001421 100.1817 259.9336 15.08852218 96140,6917.843,95.437,540.691,538.725,0.0
52359.0,STARLINK-3853,PAYLOAD,2024-01-07 10:44:32,15.08837536,0.0001325,53.216,155.6434,101.5708,258.5433,2.5567e-05,1.19e-06,0.0,0 STARLINK-3853,1 52359U 22045AE  24007.44759388  .00000119  00000-0  25567-4 0  9998,2 52359  53.2160 155.6434 0001325 101.5708 258.5433 15.08837536 96184,6917.888,95.438,540.67,538.836,0.0
52359.0,STARLINK-3853,PAYLOAD,2024-01-07 13:55:18,15.08840326,0.0001307,53.2161,155.0487,101.6686,258.4453,7.0584e-06,-1.76e-06,0.0,0 STARLINK-3853,1 52359U 22045AE  24007.58007296 -.00000176  00000-0  70584-5 0  9991,2 52359  53.2161 155.0487 0001307 101.6686 258.4453 15.08840326 96208,6917.879,95.438,540.649,538.84,0.0
52359.0,STARLINK-3853,PAYLOAD,2024-01-07 18:41:27,15.088436,0.000125,53.2164,154.1579,89.437,270.6765,3.1319e-05,2.11e-06,0.0,0 STARLINK-3853,1 52359U 22045AE  24007.77879028  .00000211  00000-0  31319-4 0  9993,2 52359  53.2164 154.1579 0001250  89.4370 270.6765 15.08843600 96236,6917.869,95.437,540.599,538.87,0.0
52359.0,STARLINK-3853,PAYLOAD,2024-01-08 13:46:05,15.08843035,0.0001227,53.2165,150.5895,92.069,268.0443,-3.1383e-05,-7.87e-06,0.0,0 STARLINK-3853,1 52359U 22045AE  24008.57367103 -.00000787  00000-0 -31383-4 0  9999,2 52359  53.2165 150.5895 0001227  92.0690 268.0443 15.08843035 96356,6917.871,95.437,540.585,538.887,0.0
52359.0,STARLINK-3853,PAYLOAD,2024-01-08 16:56:51,15.08847349,0.0001251,53.2164,149.994,96.1439,263.9695,-1.9467e-06,-3.19e-06,0.0,0 STARLINK-3853,1 52359U 22045AE  24008.70614670 -.00000319  00000-0 -19467-5 0  9999,2 52359  53.2164 149.9940 0001251  96.1439 263.9695 15.08847349 96378,6917.858,95.437,540.588,538.858,0.0
52359.0,STARLINK-3853,PAYLOAD,2024-01-09 08:50:41,15.08846783,0.0001257,53.2165,147.0211,88.9074,271.2062,8.9301e-05,1.134e-05,0.0,0 STARLINK-3853,1 52359U 22045AE  24009.36854159  .00001134  00000-0  89301-4 0  9997,2 52359  53.2165 147.0211 0001257  88.9074 271.2062 15.08846783 96471,6917.86,95.437,540.594,538.855,0.0
52359.0,STARLINK-3853,PAYLOAD,2024-01-09 13:36:50,15.08851117,0.000127,53.2165,146.1293,89.1848,270.9289,0.00015579,2.193e-05,0.0,0 STARLINK-3853,1 52359U 22045AE  24009.56725569  .00002193  00000-0  15579-3 0  9992,2 52359  53.2165 146.1293 0001270  89.1848 270.9289 15.08851117 96506,6917.846,95.437,540.59,538.833,0.0
52359.0,STARLINK-3853,PAYLOAD,2024-01-09 15:12:13,15.0885325,0.0001292,53.2164,145.832,87.5681,272.5459,0.00017374,2.479e-05,0.0,0 STARLINK-3853,1 52359U 22045AE  24009.63349372  .00002479  00000-0  17374-3 0  9996,2 52359  53.2164 145.8320 0001292  87.5681 272.5459 15.08853250 96511,6917.84,95.437,540.599,538.811,0.0
52359.0,STARLINK-3853,PAYLOAD,2024-01-10 08:41:29,15.08841108,0.0001312,53.2159,142.5627,70.5137,289.5997,-1.0738e-05,-4.59e-06,0.0,0 STARLINK-3853,1 52359U 22045AE  24010.36214705 -.00000459  00000-0 -10738-4 0  9995,2 52359  53.2159 142.5627 0001312  70.5137 289.5997 15.08841108 96626,6917.877,95.437,540.65,538.834,0.0
52359.0,STARLINK-3853,PAYLOAD,2024-01-11 11:43:02,15.0885025,0.000139,53.2176,137.503,109.431,250.6832,-0.00010578,-1.972e-05,0.0,0 STARLINK-3853,1 52359U 22045AE  24011.48822236 -.00001972  00000-0 -10578-3 0  9995,2 52359  53.2176 137.5030 0001390 109.4310 250.6832 15.08850250 96791,6917.849,95.437,540.676,538.752,0.0
52359.0,STARLINK-3853,PAYLOAD,2024-01-11 14:53:48,15.08856583,0.0001528,53.2182,136.9093,100.0433,260.0732,-4.5252e-05,-1.008e-05,0.0,0 STARLINK-3853,1 52359U 22045AE  24011.62069668 -.00001008  00000-0 -45252-4 0  9991,2 52359  53.2182 136.9093 0001528 100.0433 260.0732 15.08856583 96818,6917.83,95.437,540.752,538.638,0.0
52359.0,STARLINK-3853,PAYLOAD,2024-01-11 18:04:34,15.08860217,0.0001626,53.2177,136.3131,103.5656,256.5517,-4.6938e-05,-1.035e-05,0.0,0 STARLINK-3853,1 52359U 22045AE  24011.75317309 -.00001035  00000-0 -46938-4 0  9995,2 52359  53.2177 136.3131 0001626 103.5656 256.5517 15.08860217 96835,6917.819,95.436,540.808,538.559,0.0
52359.0,STARLINK-3853,PAYLOAD,2024-01-12 11:33:50,15.08832838,0.0001955,53.2173,133.0365,136.8131,223.3014,-1.7699e-05,-5.7e-06,0.0,0 STARLINK-3853,1 52359U 22045AE  24012.48183066 -.00000570  00000-0 -17699-4 0  9992,2 52359  53.2173 133.0365 0001955 136.8131 223.3014 15.08832838 96940,6917.902,95.438,541.12,538.415,0.0
52359.0,STARLINK-3853,PAYLOAD,2024-01-12 13:09:13,15.088319,0.0001863,53.2177,132.7396,134.3913,225.7232,-1.6777e-05,-5.55e-06,0.0,0 STARLINK-3853,1 52359U 22045AE  24012.54807188 -.00000555  00000-0 -16777-4 0  9996,2 52359  53.2177 132.7396 0001863 134.3913 225.7232 15.08831900 96951,6917.905,95.438,541.059,538.481,0.0
52359.0,STARLINK-3853,PAYLOAD,2024-01-12 14:44:36,15.08829347,0.0001384,53.2171,132.4489,81.2075,278.9074,2.8746e-05,1.69e-06,0.0,0 STARLINK-3853,1 52359U 22045AE  24012.61431669  .00000169  00000-0  28746-4 0  9999,2 52359  53.2171 132.4489 0001384  81.2075 278.9074 15.08829347 96969,6917.913,95.438,540.735,538.821,0.0
52359.0,STARLINK-3853,PAYLOAD,2024-01-13 11:24:37,15.0884878,0.0001297,53.2171,128.5839,92.9864,267.1276,3.0675e-05,2e-06,0.0,0 STARLINK-3853,1 52359U 22045AE  24013.47542847  .00000200  00000-0  30675-4 0  9995,2 52359  53.2171 128.5839 0001297  92.9864 267.1276 15.08848780 97093,6917.854,95.437,540.616,538.821,0.0
52359.0,STARLINK-3853,PAYLOAD,2024-01-13 12:59:59,15.08852625,0.0001277,53.2169,128.2866,90.3616,269.7522,5.2362e-05,5.46e-06,0.0,0 STARLINK-3853,1 52359U 22045AE  24013.54166615  .00000546  00000-0  52362-4 0  9998,2 52359  53.2169 128.2866 0001277  90.3616 269.7522 15.08852625 97109,6917.842,95.437,540.59,538.823,0.0
52359.0,STARLINK-3853,PAYLOAD,2024-01-14 12:50:48,15.08833089,0.000138,53.2173,123.8252,89.7863,270.3287,0.00011899,1.606e-05,0.0,0 STARLINK-3853,1 52359U 22045AE  24014.53528202  .00001606  00000-0  11899-3 0  9999,2 52359  53.2173 123.8252 0001380  89.7863 270.3287 15.08833089 97250,6917.902,95.438,540.721,538.812,0.0
52359.0,STARLINK-3853,PAYLOAD,2024-01-15 12:41:33,15.08865993,0.0001916,53.2174,119.376,125.9507,234.1663,0.00036201,5.482e-05,0.0,0 STARLINK-3853,1 52359U 22045AE  24015.52886241  .00005482  00000-0  36201-3 0  9999,2 52359  53.2174 119.3760 0001916 125.9507 234.1663 15.08865993 97400,6917.801,95.436,540.991,538.34,0.0
52359.0,STARLINK-3853,PAYLOAD,2024-01-15 14:16:56,15.08864805,0.0001404,53.2161,119.0686,89.9734,270.1419,0.0003481,5.26e-05,0.0,0 STARLINK-3853,1 52359U 22045AE  24015.59510336  .00005260  00000-0  34810-3 0  9993,2 52359  53.2161 119.0686 0001404  89.9734 270.1419 15.08864805 97414,6917.805,95.436,540.641,538.698,0.0
52359.0,STARLINK-3853,PAYLOAD,2024-01-15 15:52:19,15.08865516,0.0001426,53.2163,118.7715,80.7773,279.3381,0.00033092,4.986e-05,0.0,0 STARLINK-3853,1 52359U 22045AE  24015.66134202  .00004986  00000-0  33092-3 0  9990,2 52359  53.2163 118.7715 0001426  80.7773 279.3381 15.08865516 97421,6917.802,95.436,540.654,538.681,0.0
52359.0,STARLINK-3853,PAYLOAD,2024-01-16 12:32:22,15.08833547,0.0001341,53.2158,114.904,99.8862,260.2281,-3.116e-05,-7.84e-06,0.0,0 STARLINK-3853,1 52359U 22045AE  24016.52247970 -.00000784  00000-0 -31160-4 0  9992,2 52359  53.2158 114.9040 0001341  99.8862 260.2281 15.08833547 97551,6917.9,95.438,540.693,538.837,0.0
52359.0,STARLINK-3853,PAYLOAD,2024-01-16 14:07:45,15.08834935,0.0001379,53.2159,114.6072,103.7657,256.3489,2.0444e-05,3.7e-07,0.0,0 STARLINK-3853,1 52359U 22045AE  24016.58871975  .00000037  00000-0  20444-4 0  9998,2 52359  53.2159 114.6072 0001379 103.7657 256.3489 15.08834935 97561,6917.896,95.438,540.715,538.807,0.0
52359.0,STARLINK-3853,PAYLOAD,2024-01-16 15:43:08,15.08838825,0.0001373,53.2158,114.3088,108.3554,251.7588,6.9445e-05,8.17e-06,0.0,0 STARLINK-3853,1 52359U 22045AE  24016.65495776  .00000817  00000-0  69445-4 0  9997,2 52359  53.2158 114.3088 0001373 108.3554 251.7588 15.08838825 97577,6917.884,95.438,540.699,538.799,0.0
52359.0,STARLINK-3853,PAYLOAD,2024-01-17 12:23:09,15.08844582,0.0001316,53.216,110.4464,93.6769,266.4374,-4.6469e-05,-1.027e-05,0.0,0 STARLINK-3853,1 52359U 22045AE  24017.51607713 -.00001027  00000-0 -46469-4 0  9996,2 52359  53.2160 110.4464 0001316  93.6769 266.4374 15.08844582 97704,6917.866,95.437,540.642,538.821,0.0
